<?xml version="1.0" encoding="UTF-8"?>
<kml xmlns="http://www.opengis.net/kml/2.2" xmlns:gx="http://www.google.com/kml/ext/2.2" xmlns:kml="http://www.opengis.net/kml/2.2" xmlns:atom="http://www.w3.org/2005/Atom">
<Document>
	<name>City_Labels.kml</name>
	<open>1</open>
	<atom:link rel="app" href="https://www.google.com/earth/about/versions/#earth-pro" title="Google Earth Pro 7.3.6.10201"></atom:link>
	<StyleMap id="m_ylw-pushpin">
		<Pair>
			<key>normal</key>
			<styleUrl>#s_ylw-pushpin00</styleUrl>
		</Pair>
		<Pair>
			<key>highlight</key>
			<styleUrl>#s_ylw-pushpin_hl1</styleUrl>
		</Pair>
	</StyleMap>
	<StyleMap id="m_ylw-pushpin1">
		<Pair>
			<key>normal</key>
			<styleUrl>#s_ylw-pushpin0</styleUrl>
		</Pair>
		<Pair>
			<key>highlight</key>
			<styleUrl>#s_ylw-pushpin_hl</styleUrl>
		</Pair>
	</StyleMap>
	<StyleMap id="m_ylw-pushpin0">
		<Pair>
			<key>normal</key>
			<styleUrl>#s_ylw-pushpin</styleUrl>
		</Pair>
		<Pair>
			<key>highlight</key>
			<styleUrl>#s_ylw-pushpin_hl0</styleUrl>
		</Pair>
	</StyleMap>
	<Style id="s_ylw-pushpin">
		<IconStyle>
			<scale>1.1</scale>
			<Icon>
				<href>http://maps.google.com/mapfiles/kml/pushpin/ylw-pushpin.png</href>
			</Icon>
			<hotSpot x="20" y="2" xunits="pixels" yunits="pixels"/>
		</IconStyle>
	</Style>
	<Style id="s_ylw-pushpin0">
		<IconStyle>
			<scale>1.1</scale>
			<Icon>
				<href>http://maps.google.com/mapfiles/kml/pushpin/ylw-pushpin.png</href>
			</Icon>
			<hotSpot x="20" y="2" xunits="pixels" yunits="pixels"/>
		</IconStyle>
	</Style>
	<Style id="s_ylw-pushpin00">
		<IconStyle>
			<scale>1.1</scale>
			<Icon>
				<href>http://maps.google.com/mapfiles/kml/pushpin/ylw-pushpin.png</href>
			</Icon>
			<hotSpot x="20" y="2" xunits="pixels" yunits="pixels"/>
		</IconStyle>
	</Style>
	<Style id="s_ylw-pushpin_hl">
		<IconStyle>
			<scale>1.3</scale>
			<Icon>
				<href>http://maps.google.com/mapfiles/kml/pushpin/ylw-pushpin.png</href>
			</Icon>
			<hotSpot x="20" y="2" xunits="pixels" yunits="pixels"/>
		</IconStyle>
	</Style>
	<Style id="s_ylw-pushpin_hl1">
		<IconStyle>
			<scale>1.3</scale>
			<Icon>
				<href>http://maps.google.com/mapfiles/kml/pushpin/ylw-pushpin.png</href>
			</Icon>
			<hotSpot x="20" y="2" xunits="pixels" yunits="pixels"/>
		</IconStyle>
	</Style>
	<Style id="s_ylw-pushpin_hl0">
		<IconStyle>
			<scale>1.3</scale>
			<Icon>
				<href>http://maps.google.com/mapfiles/kml/pushpin/ylw-pushpin.png</href>
			</Icon>
			<hotSpot x="20" y="2" xunits="pixels" yunits="pixels"/>
		</IconStyle>
	</Style>
	<Placemark>
		<name>Kiel</name>
		<LookAt>
			<longitude>9.75291304901719</longitude>
			<latitude>54.63534602759118</latitude>
			<altitude>0</altitude>
			<heading>0.462039073524898</heading>
			<tilt>0</tilt>
			<range>232926.3948490516</range>
			<gx:altitudeMode>relativeToSeaFloor</gx:altitudeMode>
		</LookAt>
		<styleUrl>#m_ylw-pushpin0</styleUrl>
		<Point>
			<gx:drawOrder>1</gx:drawOrder>
			<coordinates>10.12331915332698,54.31954577483044,0</coordinates>
		</Point>
	</Placemark>
	<Placemark>
		<name>Hamburg</name>
		<LookAt>
			<longitude>9.972514276085239</longitude>
			<latitude>53.72876503152206</latitude>
			<altitude>0</altitude>
			<heading>0.6357279651104156</heading>
			<tilt>0</tilt>
			<range>159651.9012467327</range>
			<gx:altitudeMode>relativeToSeaFloor</gx:altitudeMode>
		</LookAt>
		<styleUrl>#m_ylw-pushpin0</styleUrl>
		<Point>
			<gx:drawOrder>1</gx:drawOrder>
			<coordinates>9.961323527294724,53.56202272646777,0</coordinates>
		</Point>
	</Placemark>
	<Placemark>
		<name>Bremen</name>
		<LookAt>
			<longitude>9.371611825910515</longitude>
			<latitude>53.05577665026019</latitude>
			<altitude>0</altitude>
			<heading>0.1476047415445821</heading>
			<tilt>0</tilt>
			<range>117223.0614403944</range>
			<gx:altitudeMode>relativeToSeaFloor</gx:altitudeMode>
		</LookAt>
		<styleUrl>#m_ylw-pushpin0</styleUrl>
		<Point>
			<gx:drawOrder>1</gx:drawOrder>
			<coordinates>8.809082417338969,53.08351683358551,0</coordinates>
		</Point>
	</Placemark>
	<Placemark>
		<name>Schwerin</name>
		<LookAt>
			<longitude>11.66943398843246</longitude>
			<latitude>53.62453862166875</latitude>
			<altitude>0</altitude>
			<heading>1.99781787154298</heading>
			<tilt>0</tilt>
			<range>84612.72981161541</range>
			<gx:altitudeMode>relativeToSeaFloor</gx:altitudeMode>
		</LookAt>
		<styleUrl>#m_ylw-pushpin0</styleUrl>
		<Point>
			<gx:drawOrder>1</gx:drawOrder>
			<coordinates>11.40084442282369,53.63714181385067,0</coordinates>
		</Point>
	</Placemark>
	<Placemark>
		<name>Hannover</name>
		<LookAt>
			<longitude>10.28240139445748</longitude>
			<latitude>52.47534125057016</latitude>
			<altitude>0</altitude>
			<heading>0.787491343431529</heading>
			<tilt>0</tilt>
			<range>118432.2258648434</range>
			<gx:altitudeMode>relativeToSeaFloor</gx:altitudeMode>
		</LookAt>
		<styleUrl>#m_ylw-pushpin0</styleUrl>
		<Point>
			<gx:drawOrder>1</gx:drawOrder>
			<coordinates>9.733139074522633,52.37737711965677,0</coordinates>
		</Point>
	</Placemark>
	<Placemark>
		<name>Magdeburg</name>
		<LookAt>
			<longitude>11.6399032428034</longitude>
			<latitude>52.13295920977122</latitude>
			<altitude>0</altitude>
			<heading>1.851147757772411</heading>
			<tilt>0</tilt>
			<range>68153.12339808579</range>
			<gx:altitudeMode>relativeToSeaFloor</gx:altitudeMode>
		</LookAt>
		<styleUrl>#m_ylw-pushpin0</styleUrl>
		<Point>
			<gx:drawOrder>1</gx:drawOrder>
			<coordinates>11.61150248045161,52.11440277302048,0</coordinates>
		</Point>
	</Placemark>
	<Placemark>
		<name>Potsdam</name>
		<LookAt>
			<longitude>13.27684316659403</longitude>
			<latitude>52.38744578885429</latitude>
			<altitude>0</altitude>
			<heading>3.125057543052227</heading>
			<tilt>0</tilt>
			<range>65636.41356892091</range>
			<gx:altitudeMode>relativeToSeaFloor</gx:altitudeMode>
		</LookAt>
		<styleUrl>#m_ylw-pushpin0</styleUrl>
		<Point>
			<gx:drawOrder>1</gx:drawOrder>
			<coordinates>13.06671049345927,52.38965282786263,0</coordinates>
		</Point>
	</Placemark>
	<Placemark>
		<name>Berlin</name>
		<LookAt>
			<longitude>13.5638936102573</longitude>
			<latitude>52.49082598646731</latitude>
			<altitude>0</altitude>
			<heading>3.353621803738411</heading>
			<tilt>0</tilt>
			<range>73636.06246797035</range>
			<gx:altitudeMode>relativeToSeaFloor</gx:altitudeMode>
		</LookAt>
		<styleUrl>#m_ylw-pushpin0</styleUrl>
		<Point>
			<gx:drawOrder>1</gx:drawOrder>
			<coordinates>13.40535678680457,52.52099411538795,0</coordinates>
		</Point>
	</Placemark>
	<Placemark>
		<name>Dresen</name>
		<LookAt>
			<longitude>13.71090603358017</longitude>
			<latitude>51.05522526419735</latitude>
			<altitude>0</altitude>
			<heading>3.346673315588716</heading>
			<tilt>0</tilt>
			<range>54384.31844468992</range>
			<gx:altitudeMode>relativeToSeaFloor</gx:altitudeMode>
		</LookAt>
		<styleUrl>#m_ylw-pushpin0</styleUrl>
		<Point>
			<gx:drawOrder>1</gx:drawOrder>
			<coordinates>13.73440814094581,51.04981352077242,0</coordinates>
		</Point>
	</Placemark>
	<Placemark>
		<name>Erfurt</name>
		<LookAt>
			<longitude>11.1163657075235</longitude>
			<latitude>50.95030842164401</latitude>
			<altitude>0</altitude>
			<heading>1.301731052419552</heading>
			<tilt>0</tilt>
			<range>36896.49883584129</range>
			<gx:altitudeMode>relativeToSeaFloor</gx:altitudeMode>
		</LookAt>
		<styleUrl>#m_ylw-pushpin0</styleUrl>
		<Point>
			<gx:drawOrder>1</gx:drawOrder>
			<coordinates>11.03426423384447,50.9908737147172,0</coordinates>
		</Point>
	</Placemark>
	<Placemark>
		<name>Düsseldorf</name>
		<LookAt>
			<longitude>7.117055915622035</longitude>
			<latitude>51.12261681681768</latitude>
			<altitude>0</altitude>
			<heading>-1.960798539806254</heading>
			<tilt>0</tilt>
			<range>113304.0332040791</range>
			<gx:altitudeMode>relativeToSeaFloor</gx:altitudeMode>
		</LookAt>
		<styleUrl>#m_ylw-pushpin0</styleUrl>
		<Point>
			<gx:drawOrder>1</gx:drawOrder>
			<coordinates>6.790156437126651,51.22038597906807,0</coordinates>
		</Point>
	</Placemark>
	<Placemark>
		<name>Mainz</name>
		<LookAt>
			<longitude>8.473493070451163</longitude>
			<latitude>50.06077230235655</latitude>
			<altitude>0</altitude>
			<heading>-1.414305617529161</heading>
			<tilt>0</tilt>
			<range>58239.22621936655</range>
			<gx:altitudeMode>relativeToSeaFloor</gx:altitudeMode>
		</LookAt>
		<styleUrl>#m_ylw-pushpin1</styleUrl>
		<Point>
			<gx:drawOrder>1</gx:drawOrder>
			<coordinates>8.240761116243496,50.0057811230066,0</coordinates>
		</Point>
	</Placemark>
	<Placemark>
		<name>Wiesbaden</name>
		<LookAt>
			<longitude>8.480364096975187</longitude>
			<latitude>50.06816877629942</latitude>
			<altitude>0</altitude>
			<heading>-0.9116884896412351</heading>
			<tilt>0</tilt>
			<range>51176.770775039</range>
			<gx:altitudeMode>relativeToSeaFloor</gx:altitudeMode>
		</LookAt>
		<styleUrl>#m_ylw-pushpin0</styleUrl>
		<Point>
			<gx:drawOrder>1</gx:drawOrder>
			<coordinates>8.233466430873884,50.07051230470908,0</coordinates>
		</Point>
	</Placemark>
	<Placemark>
		<name>Saarbrücken</name>
		<LookAt>
			<longitude>7.042455608904854</longitude>
			<latitude>49.26724019261894</latitude>
			<altitude>0</altitude>
			<heading>-2.688940415377215</heading>
			<tilt>0</tilt>
			<range>31203.77012739823</range>
			<gx:altitudeMode>relativeToSeaFloor</gx:altitudeMode>
		</LookAt>
		<styleUrl>#m_ylw-pushpin0</styleUrl>
		<Point>
			<gx:drawOrder>1</gx:drawOrder>
			<coordinates>6.998944487855208,49.23722571783626,0</coordinates>
		</Point>
	</Placemark>
	<Placemark>
		<name>Stuttgart</name>
		<LookAt>
			<longitude>9.235895006641188</longitude>
			<latitude>48.80223089077179</latitude>
			<altitude>0</altitude>
			<heading>-1.036851401827854</heading>
			<tilt>0</tilt>
			<range>20906.18193274175</range>
			<gx:altitudeMode>relativeToSeaFloor</gx:altitudeMode>
		</LookAt>
		<styleUrl>#m_ylw-pushpin0</styleUrl>
		<Point>
			<gx:drawOrder>1</gx:drawOrder>
			<coordinates>9.185312122755402,48.77760853420622,0</coordinates>
		</Point>
	</Placemark>
	<Placemark>
		<name>München</name>
		<LookAt>
			<longitude>11.51622063879396</longitude>
			<latitude>48.26921169404756</latitude>
			<altitude>0</altitude>
			<heading>0.3073004970325775</heading>
			<tilt>0</tilt>
			<range>74096.61477994677</range>
			<gx:altitudeMode>relativeToSeaFloor</gx:altitudeMode>
		</LookAt>
		<styleUrl>#m_ylw-pushpin0</styleUrl>
		<Point>
			<gx:drawOrder>1</gx:drawOrder>
			<coordinates>11.57334415948931,48.13616020877442,0</coordinates>
		</Point>
	</Placemark>
	<Placemark>
		<name>Flensburg</name>
		<LookAt>
			<longitude>9.481096653277662</longitude>
			<latitude>54.79077248822987</latitude>
			<altitude>0</altitude>
			<heading>-0.6231885546225545</heading>
			<tilt>0</tilt>
			<range>24435.10681049606</range>
			<gx:altitudeMode>relativeToSeaFloor</gx:altitudeMode>
		</LookAt>
		<styleUrl>#m_ylw-pushpin</styleUrl>
		<Point>
			<gx:drawOrder>1</gx:drawOrder>
			<coordinates>9.446182296636819,54.7920162256897,0</coordinates>
		</Point>
	</Placemark>
	<Placemark>
		<name>Lübeck</name>
		<LookAt>
			<longitude>10.68765536946323</longitude>
			<latitude>53.86607091500758</latitude>
			<altitude>0</altitude>
			<heading>0.3389315829511286</heading>
			<tilt>0</tilt>
			<range>18182.96253620495</range>
			<gx:altitudeMode>relativeToSeaFloor</gx:altitudeMode>
		</LookAt>
		<styleUrl>#m_ylw-pushpin</styleUrl>
		<Point>
			<gx:drawOrder>1</gx:drawOrder>
			<coordinates>10.68341117934018,53.86653533403263,0</coordinates>
		</Point>
	</Placemark>
	<Placemark>
		<name>Rostock</name>
		<LookAt>
			<longitude>12.08172121369453</longitude>
			<latitude>54.07440816786846</latitude>
			<altitude>0</altitude>
			<heading>1.233265337202212</heading>
			<tilt>0</tilt>
			<range>24571.4663018959</range>
			<gx:altitudeMode>relativeToSeaFloor</gx:altitudeMode>
		</LookAt>
		<styleUrl>#m_ylw-pushpin</styleUrl>
		<Point>
			<gx:drawOrder>1</gx:drawOrder>
			<coordinates>12.09891334261524,54.09103529970654,0</coordinates>
		</Point>
	</Placemark>
	<Placemark>
		<name>Oldenburg</name>
		<LookAt>
			<longitude>8.359512722224482</longitude>
			<latitude>53.14052539482844</latitude>
			<altitude>0</altitude>
			<heading>-1.873373129983838</heading>
			<tilt>0</tilt>
			<range>30249.4073568925</range>
			<gx:altitudeMode>relativeToSeaFloor</gx:altitudeMode>
		</LookAt>
		<styleUrl>#m_ylw-pushpin</styleUrl>
		<Point>
			<gx:drawOrder>1</gx:drawOrder>
			<coordinates>8.210136173121667,53.14894600867113,0</coordinates>
		</Point>
	</Placemark>
	<Placemark>
		<name>Wolfsburg</name>
		<LookAt>
			<longitude>10.82103278879425</longitude>
			<latitude>52.45264313085011</latitude>
			<altitude>0</altitude>
			<heading>0.04357560238168999</heading>
			<tilt>0</tilt>
			<range>17539.61362144503</range>
			<gx:altitudeMode>relativeToSeaFloor</gx:altitudeMode>
		</LookAt>
		<styleUrl>#m_ylw-pushpin</styleUrl>
		<Point>
			<gx:drawOrder>1</gx:drawOrder>
			<coordinates>10.78552908750208,52.42185413744377,0</coordinates>
		</Point>
	</Placemark>
	<Placemark>
		<name>Braunschweig</name>
		<LookAt>
			<longitude>10.58751318299248</longitude>
			<latitude>52.26539101548897</latitude>
			<altitude>0</altitude>
			<heading>-0.1627923925117514</heading>
			<tilt>0</tilt>
			<range>31872.1981815367</range>
			<gx:altitudeMode>relativeToSeaFloor</gx:altitudeMode>
		</LookAt>
		<styleUrl>#m_ylw-pushpin</styleUrl>
		<Point>
			<gx:drawOrder>1</gx:drawOrder>
			<coordinates>10.52200301672801,52.26627246827164,0</coordinates>
		</Point>
	</Placemark>
	<Placemark>
		<name>Hildesheim</name>
		<LookAt>
			<longitude>9.886270927978108</longitude>
			<latitude>52.34864352373911</latitude>
			<altitude>0</altitude>
			<heading>-0.7173035840750348</heading>
			<tilt>0</tilt>
			<range>65891.34654471152</range>
			<gx:altitudeMode>relativeToSeaFloor</gx:altitudeMode>
		</LookAt>
		<styleUrl>#m_ylw-pushpin</styleUrl>
		<Point>
			<gx:drawOrder>1</gx:drawOrder>
			<coordinates>9.953283647537795,52.15322927469892,0</coordinates>
		</Point>
	</Placemark>
	<Placemark>
		<name>Salzgitter</name>
		<LookAt>
			<longitude>10.39018779500385</longitude>
			<latitude>52.16692598280992</latitude>
			<altitude>0</altitude>
			<heading>-0.1796870790386572</heading>
			<tilt>0</tilt>
			<range>14166.98496854106</range>
			<gx:altitudeMode>relativeToSeaFloor</gx:altitudeMode>
		</LookAt>
		<styleUrl>#m_ylw-pushpin</styleUrl>
		<Point>
			<gx:drawOrder>1</gx:drawOrder>
			<coordinates>10.32519759253459,52.15862367776827,0</coordinates>
		</Point>
	</Placemark>
	<Placemark>
		<name>Osnabrück</name>
		<LookAt>
			<longitude>8.194155817677524</longitude>
			<latitude>52.29202806112892</latitude>
			<altitude>0</altitude>
			<heading>-2.39223594373488</heading>
			<tilt>0</tilt>
			<range>22383.07711045377</range>
			<gx:altitudeMode>relativeToSeaFloor</gx:altitudeMode>
		</LookAt>
		<styleUrl>#m_ylw-pushpin</styleUrl>
		<Point>
			<gx:drawOrder>1</gx:drawOrder>
			<coordinates>8.048910283222666,52.27389516734971,0</coordinates>
		</Point>
	</Placemark>
	<Placemark>
		<name>Dessau</name>
		<LookAt>
			<longitude>12.29021863661043</longitude>
			<latitude>51.86371742055628</latitude>
			<altitude>0</altitude>
			<heading>0.8414112751939944</heading>
			<tilt>0</tilt>
			<range>26001.95351989508</range>
			<gx:altitudeMode>relativeToSeaFloor</gx:altitudeMode>
		</LookAt>
		<styleUrl>#m_ylw-pushpin</styleUrl>
		<Point>
			<gx:drawOrder>1</gx:drawOrder>
			<coordinates>12.23240215741549,51.82683143026951,0</coordinates>
		</Point>
	</Placemark>
	<Placemark>
		<name>Halle</name>
		<LookAt>
			<longitude>12.0329247664522</longitude>
			<latitude>51.51095542813471</latitude>
			<altitude>0</altitude>
			<heading>0.4104139176097136</heading>
			<tilt>0</tilt>
			<range>24598.51620352275</range>
			<gx:altitudeMode>relativeToSeaFloor</gx:altitudeMode>
		</LookAt>
		<styleUrl>#m_ylw-pushpin</styleUrl>
		<Point>
			<gx:drawOrder>1</gx:drawOrder>
			<coordinates>11.97063162596827,51.48270823079052,0</coordinates>
		</Point>
	</Placemark>
	<Placemark>
		<name>Göttingen</name>
		<LookAt>
			<longitude>10.01946257887467</longitude>
			<latitude>51.62508384829314</latitude>
			<altitude>0</altitude>
			<heading>-1.186452457476809</heading>
			<tilt>0</tilt>
			<range>34362.05053308453</range>
			<gx:altitudeMode>relativeToSeaFloor</gx:altitudeMode>
		</LookAt>
		<styleUrl>#m_ylw-pushpin</styleUrl>
		<Point>
			<gx:drawOrder>1</gx:drawOrder>
			<coordinates>9.93425694827307,51.53334212999578,0</coordinates>
		</Point>
	</Placemark>
	<Placemark>
		<name>Kassel</name>
		<LookAt>
			<longitude>9.526727587389194</longitude>
			<latitude>51.2830290460593</latitude>
			<altitude>0</altitude>
			<heading>-1.57614626663878</heading>
			<tilt>0</tilt>
			<range>26605.14260908016</range>
			<gx:altitudeMode>relativeToSeaFloor</gx:altitudeMode>
		</LookAt>
		<styleUrl>#m_ylw-pushpin</styleUrl>
		<Point>
			<gx:drawOrder>1</gx:drawOrder>
			<coordinates>9.490060392477579,51.31286036251549,0</coordinates>
		</Point>
	</Placemark>
	<Placemark>
		<name>Leipzig</name>
		<LookAt>
			<longitude>12.45553574495512</longitude>
			<latitude>51.3222665474856</latitude>
			<altitude>0</altitude>
			<heading>0.5865499659618872</heading>
			<tilt>0</tilt>
			<range>29984.64563016547</range>
			<gx:altitudeMode>relativeToSeaFloor</gx:altitudeMode>
		</LookAt>
		<styleUrl>#m_ylw-pushpin</styleUrl>
		<Point>
			<gx:drawOrder>1</gx:drawOrder>
			<coordinates>12.36896382391037,51.33825730175845,0</coordinates>
		</Point>
	</Placemark>
	<Placemark>
		<name>Chemnitz</name>
		<LookAt>
			<longitude>12.94629518845358</longitude>
			<latitude>50.85764144277526</latitude>
			<altitude>0</altitude>
			<heading>-0.3282391917415832</heading>
			<tilt>0</tilt>
			<range>19400.47076548029</range>
			<gx:altitudeMode>relativeToSeaFloor</gx:altitudeMode>
		</LookAt>
		<styleUrl>#m_ylw-pushpin</styleUrl>
		<Point>
			<gx:drawOrder>1</gx:drawOrder>
			<coordinates>12.91987529472009,50.82724513403402,0</coordinates>
		</Point>
	</Placemark>
	<Placemark>
		<name>Cottbus</name>
		<LookAt>
			<longitude>14.32000542088693</longitude>
			<latitude>51.76415832967276</latitude>
			<altitude>0</altitude>
			<heading>0.5650252009753561</heading>
			<tilt>0</tilt>
			<range>9506.533122259654</range>
			<gx:altitudeMode>relativeToSeaFloor</gx:altitudeMode>
		</LookAt>
		<styleUrl>#m_ylw-pushpin</styleUrl>
		<Point>
			<gx:drawOrder>1</gx:drawOrder>
			<coordinates>14.33150467439328,51.75706758749614,0</coordinates>
		</Point>
	</Placemark>
	<Placemark>
		<name>Görlitz</name>
		<LookAt>
			<longitude>14.9547004504811</longitude>
			<latitude>51.15175478937496</latitude>
			<altitude>0</altitude>
			<heading>0.6701852394483619</heading>
			<tilt>0</tilt>
			<range>8061.88235655782</range>
			<gx:altitudeMode>relativeToSeaFloor</gx:altitudeMode>
		</LookAt>
		<styleUrl>#m_ylw-pushpin</styleUrl>
		<Point>
			<gx:drawOrder>1</gx:drawOrder>
			<coordinates>14.98231290030711,51.15183379207146,0</coordinates>
		</Point>
	</Placemark>
	<Placemark>
		<name>Zwickau</name>
		<LookAt>
			<longitude>12.53307359186771</longitude>
			<latitude>50.71180975739431</latitude>
			<altitude>0</altitude>
			<heading>-1.281968094283881</heading>
			<tilt>0</tilt>
			<range>16083.97827165701</range>
			<gx:altitudeMode>relativeToSeaFloor</gx:altitudeMode>
		</LookAt>
		<styleUrl>#m_ylw-pushpin</styleUrl>
		<Point>
			<gx:drawOrder>1</gx:drawOrder>
			<coordinates>12.48991577795955,50.71869338927807,0</coordinates>
		</Point>
	</Placemark>
	<Placemark>
		<name>Plauen</name>
		<LookAt>
			<longitude>12.14212049622904</longitude>
			<latitude>50.48505717835785</latitude>
			<altitude>0</altitude>
			<heading>-1.319110750320386</heading>
			<tilt>0</tilt>
			<range>11104.13966929913</range>
			<gx:altitudeMode>relativeToSeaFloor</gx:altitudeMode>
		</LookAt>
		<styleUrl>#m_ylw-pushpin</styleUrl>
		<Point>
			<gx:drawOrder>1</gx:drawOrder>
			<coordinates>12.13663020918521,50.49698459361895,0</coordinates>
		</Point>
	</Placemark>
	<Placemark>
		<name>Bayreuth</name>
		<LookAt>
			<longitude>11.59811013238357</longitude>
			<latitude>49.96158552614658</latitude>
			<altitude>0</altitude>
			<heading>-2.622356145524855</heading>
			<tilt>0</tilt>
			<range>9838.159696865625</range>
			<gx:altitudeMode>relativeToSeaFloor</gx:altitudeMode>
		</LookAt>
		<styleUrl>#m_ylw-pushpin</styleUrl>
		<Point>
			<gx:drawOrder>1</gx:drawOrder>
			<coordinates>11.57241468824433,49.945027773129,0</coordinates>
		</Point>
	</Placemark>
	<Placemark>
		<name>Nürnberg</name>
		<LookAt>
			<longitude>11.1726259137991</longitude>
			<latitude>49.5301958826862</latitude>
			<altitude>0</altitude>
			<heading>-2.946101758139185</heading>
			<tilt>0</tilt>
			<range>44323.47594984374</range>
			<gx:altitudeMode>relativeToSeaFloor</gx:altitudeMode>
		</LookAt>
		<styleUrl>#m_ylw-pushpin</styleUrl>
		<Point>
			<gx:drawOrder>1</gx:drawOrder>
			<coordinates>11.07045638115493,49.4494107382529,0</coordinates>
		</Point>
	</Placemark>
	<Placemark>
		<name>Erlangen</name>
		<LookAt>
			<longitude>11.06645375346681</longitude>
			<latitude>49.59373476282175</latitude>
			<altitude>0</altitude>
			<heading>-3.091385426314521</heading>
			<tilt>0</tilt>
			<range>29243.54258650479</range>
			<gx:altitudeMode>relativeToSeaFloor</gx:altitudeMode>
		</LookAt>
		<styleUrl>#m_ylw-pushpin</styleUrl>
		<Point>
			<gx:drawOrder>1</gx:drawOrder>
			<coordinates>11.00551978404132,49.58941248823523,0</coordinates>
		</Point>
	</Placemark>
	<Placemark>
		<name>Jena</name>
		<LookAt>
			<longitude>11.53312893008834</longitude>
			<latitude>50.86318031772395</latitude>
			<altitude>0</altitude>
			<heading>-2.516038791674783</heading>
			<tilt>0</tilt>
			<range>36139.25606503411</range>
			<gx:altitudeMode>relativeToSeaFloor</gx:altitudeMode>
		</LookAt>
		<styleUrl>#m_ylw-pushpin</styleUrl>
		<Point>
			<gx:drawOrder>1</gx:drawOrder>
			<coordinates>11.58569957174607,50.92943004705045,0</coordinates>
		</Point>
	</Placemark>
	<Placemark>
		<name>Gera</name>
		<LookAt>
			<longitude>12.09300275471554</longitude>
			<latitude>50.87945695306225</latitude>
			<altitude>0</altitude>
			<heading>-2.539385668565014</heading>
			<tilt>0</tilt>
			<range>10471.52081922076</range>
			<gx:altitudeMode>relativeToSeaFloor</gx:altitudeMode>
		</LookAt>
		<styleUrl>#m_ylw-pushpin</styleUrl>
		<Point>
			<gx:drawOrder>1</gx:drawOrder>
			<coordinates>12.08065503196407,50.87644442808926,0</coordinates>
		</Point>
	</Placemark>
	<Placemark>
		<name>Würzburg</name>
		<LookAt>
			<longitude>10.06288648342506</longitude>
			<latitude>49.75968892185382</latitude>
			<altitude>0</altitude>
			<heading>-4.531821250258849</heading>
			<tilt>0</tilt>
			<range>21990.35163328467</range>
			<gx:altitudeMode>relativeToSeaFloor</gx:altitudeMode>
		</LookAt>
		<styleUrl>#m_ylw-pushpin</styleUrl>
		<Point>
			<gx:drawOrder>1</gx:drawOrder>
			<coordinates>9.947282030024232,49.78949843454706,0</coordinates>
		</Point>
	</Placemark>
	<Placemark>
		<name>Ansbach</name>
		<LookAt>
			<longitude>10.61426298148548</longitude>
			<latitude>49.30795173236741</latitude>
			<altitude>0</altitude>
			<heading>-5.309190591188484</heading>
			<tilt>0</tilt>
			<range>15412.22333391112</range>
			<gx:altitudeMode>relativeToSeaFloor</gx:altitudeMode>
		</LookAt>
		<styleUrl>#m_ylw-pushpin</styleUrl>
		<Point>
			<gx:drawOrder>1</gx:drawOrder>
			<coordinates>10.5713754540454,49.29993067500078,0</coordinates>
		</Point>
	</Placemark>
	<Placemark>
		<name>Regensburg</name>
		<LookAt>
			<longitude>12.12058020763846</longitude>
			<latitude>49.0103306356115</latitude>
			<altitude>0</altitude>
			<heading>-4.199279299565715</heading>
			<tilt>0</tilt>
			<range>15755.00487040258</range>
			<gx:altitudeMode>relativeToSeaFloor</gx:altitudeMode>
		</LookAt>
		<styleUrl>#m_ylw-pushpin</styleUrl>
		<Point>
			<gx:drawOrder>1</gx:drawOrder>
			<coordinates>12.09982810353233,49.01781307132669,0</coordinates>
		</Point>
	</Placemark>
	<Placemark>
		<name>Ingolstadt</name>
		<LookAt>
			<longitude>11.4492441383571</longitude>
			<latitude>48.76882843774598</latitude>
			<altitude>0</altitude>
			<heading>-4.762346724085603</heading>
			<tilt>0</tilt>
			<range>5442.440496783596</range>
			<gx:altitudeMode>relativeToSeaFloor</gx:altitudeMode>
		</LookAt>
		<styleUrl>#m_ylw-pushpin</styleUrl>
		<Point>
			<gx:drawOrder>1</gx:drawOrder>
			<coordinates>11.42383001035814,48.76584782790606,0</coordinates>
		</Point>
	</Placemark>
	<Placemark>
		<name>Augsburg</name>
		<LookAt>
			<longitude>10.98177328746212</longitude>
			<latitude>48.37062833462203</latitude>
			<altitude>0</altitude>
			<heading>-5.352137955945862</heading>
			<tilt>0</tilt>
			<range>23020.09556024661</range>
			<gx:altitudeMode>relativeToSeaFloor</gx:altitudeMode>
		</LookAt>
		<styleUrl>#m_ylw-pushpin</styleUrl>
		<Point>
			<gx:drawOrder>1</gx:drawOrder>
			<coordinates>10.90116504297188,48.36582806697757,0</coordinates>
		</Point>
	</Placemark>
	<Placemark>
		<name>Frankfurt (Oder)</name>
		<LookAt>
			<longitude>14.565712565305</longitude>
			<latitude>52.375951591797</latitude>
			<altitude>0</altitude>
			<heading>-2.535314950808325</heading>
			<tilt>0</tilt>
			<range>32565.69174900022</range>
			<gx:altitudeMode>relativeToSeaFloor</gx:altitudeMode>
		</LookAt>
		<styleUrl>#m_ylw-pushpin</styleUrl>
		<Point>
			<gx:drawOrder>1</gx:drawOrder>
			<coordinates>14.54734440840397,52.34585451190065,0</coordinates>
		</Point>
	</Placemark>
	<Placemark>
		<name>Memmingen</name>
		<LookAt>
			<longitude>10.21194586546928</longitude>
			<latitude>47.99587125711407</latitude>
			<altitude>0</altitude>
			<heading>-5.952894070259779</heading>
			<tilt>0</tilt>
			<range>17479.3763574497</range>
			<gx:altitudeMode>relativeToSeaFloor</gx:altitudeMode>
		</LookAt>
		<styleUrl>#m_ylw-pushpin</styleUrl>
		<Point>
			<gx:drawOrder>1</gx:drawOrder>
			<coordinates>10.17668357120326,47.98402892958163,0</coordinates>
		</Point>
	</Placemark>
	<Placemark>
		<name>Kempten</name>
		<LookAt>
			<longitude>10.35018473236239</longitude>
			<latitude>47.73453024014967</latitude>
			<altitude>0</altitude>
			<heading>-5.855327531693717</heading>
			<tilt>0</tilt>
			<range>11848.43169348103</range>
			<gx:altitudeMode>relativeToSeaFloor</gx:altitudeMode>
		</LookAt>
		<styleUrl>#m_ylw-pushpin</styleUrl>
		<Point>
			<gx:drawOrder>1</gx:drawOrder>
			<coordinates>10.31528432908988,47.72340622472179,0</coordinates>
		</Point>
	</Placemark>
	<Placemark>
		<name>Ulm</name>
		<LookAt>
			<longitude>10.00923335196494</longitude>
			<latitude>48.40314203575077</latitude>
			<altitude>0</altitude>
			<heading>-6.139911071965633</heading>
			<tilt>0</tilt>
			<range>15339.35970509173</range>
			<gx:altitudeMode>relativeToSeaFloor</gx:altitudeMode>
		</LookAt>
		<styleUrl>#m_ylw-pushpin</styleUrl>
		<Point>
			<gx:drawOrder>1</gx:drawOrder>
			<coordinates>9.988172722592594,48.40087286803979,0</coordinates>
		</Point>
	</Placemark>
	<Placemark>
		<name>Freiburg</name>
		<LookAt>
			<longitude>7.934553403828742</longitude>
			<latitude>48.03205836368546</latitude>
			<altitude>0</altitude>
			<heading>-7.728047533475975</heading>
			<tilt>0</tilt>
			<range>20964.50738625732</range>
			<gx:altitudeMode>relativeToSeaFloor</gx:altitudeMode>
		</LookAt>
		<styleUrl>#m_ylw-pushpin</styleUrl>
		<Point>
			<gx:drawOrder>1</gx:drawOrder>
			<coordinates>7.842943773666693,47.9961897935037,0</coordinates>
		</Point>
	</Placemark>
	<Placemark>
		<name>Friedrichshafen</name>
		<LookAt>
			<longitude>9.502888188250287</longitude>
			<latitude>47.66309552443153</latitude>
			<altitude>0</altitude>
			<heading>-6.626499654075594</heading>
			<tilt>0</tilt>
			<range>11412.43574229769</range>
			<gx:altitudeMode>relativeToSeaFloor</gx:altitudeMode>
		</LookAt>
		<styleUrl>#m_ylw-pushpin</styleUrl>
		<Point>
			<gx:drawOrder>1</gx:drawOrder>
			<coordinates>9.472082463564441,47.65511953954022,0</coordinates>
		</Point>
	</Placemark>
	<Placemark>
		<name>Reutlingen</name>
		<LookAt>
			<longitude>9.220223073157916</longitude>
			<latitude>48.48904207931916</latitude>
			<altitude>0</altitude>
			<heading>-6.513335076904413</heading>
			<tilt>0</tilt>
			<range>10261.01679761038</range>
			<gx:altitudeMode>relativeToSeaFloor</gx:altitudeMode>
		</LookAt>
		<styleUrl>#m_ylw-pushpin</styleUrl>
		<Point>
			<gx:drawOrder>1</gx:drawOrder>
			<coordinates>9.209285745244184,48.48989239874024,0</coordinates>
		</Point>
	</Placemark>
	<Placemark>
		<name>Pforzheim</name>
		<LookAt>
			<longitude>8.737981357913815</longitude>
			<latitude>48.89005329731853</latitude>
			<altitude>0</altitude>
			<heading>-6.917190671143656</heading>
			<tilt>0</tilt>
			<range>8447.689091745446</range>
			<gx:altitudeMode>relativeToSeaFloor</gx:altitudeMode>
		</LookAt>
		<styleUrl>#m_ylw-pushpin</styleUrl>
		<Point>
			<gx:drawOrder>1</gx:drawOrder>
			<coordinates>8.694303808170183,48.89254458018313,0</coordinates>
		</Point>
	</Placemark>
	<Placemark>
		<name>Karlsruhe</name>
		<LookAt>
			<longitude>8.459856205818905</longitude>
			<latitude>49.01180767498192</latitude>
			<altitude>0</altitude>
			<heading>-7.137325999140897</heading>
			<tilt>0</tilt>
			<range>19837.37189460226</range>
			<gx:altitudeMode>relativeToSeaFloor</gx:altitudeMode>
		</LookAt>
		<styleUrl>#m_ylw-pushpin</styleUrl>
		<Point>
			<gx:drawOrder>1</gx:drawOrder>
			<coordinates>8.400143843165253,49.00363787388275,0</coordinates>
		</Point>
	</Placemark>
	<Placemark>
		<name>Heilbronn</name>
		<LookAt>
			<longitude>9.255611041832612</longitude>
			<latitude>49.14186975000955</latitude>
			<altitude>0</altitude>
			<heading>-6.706067922980132</heading>
			<tilt>0</tilt>
			<range>15436.32193603387</range>
			<gx:altitudeMode>relativeToSeaFloor</gx:altitudeMode>
		</LookAt>
		<styleUrl>#m_ylw-pushpin</styleUrl>
		<Point>
			<gx:drawOrder>1</gx:drawOrder>
			<coordinates>9.221330215997522,49.13878833051493,0</coordinates>
		</Point>
	</Placemark>
	<Placemark>
		<name>Kaiserslautern</name>
		<LookAt>
			<longitude>7.91228464006853</longitude>
			<latitude>49.44309312871647</latitude>
			<altitude>0</altitude>
			<heading>-7.735679746486482</heading>
			<tilt>0</tilt>
			<range>32834.85610522038</range>
			<gx:altitudeMode>relativeToSeaFloor</gx:altitudeMode>
		</LookAt>
		<styleUrl>#m_ylw-pushpin</styleUrl>
		<Point>
			<gx:drawOrder>1</gx:drawOrder>
			<coordinates>7.765940544961085,49.44178507624897,0</coordinates>
		</Point>
	</Placemark>
	<Placemark>
		<name>Mannheim/Ludwigshafen</name>
		<LookAt>
			<longitude>8.434450929350177</longitude>
			<latitude>49.53042428907303</latitude>
			<altitude>0</altitude>
			<heading>-1.366185533183983</heading>
			<tilt>0</tilt>
			<range>63922.90188570265</range>
			<gx:altitudeMode>relativeToSeaFloor</gx:altitudeMode>
		</LookAt>
		<styleUrl>#m_ylw-pushpin1</styleUrl>
		<Point>
			<gx:drawOrder>1</gx:drawOrder>
			<coordinates>8.408069729219266,49.49115619826096,0</coordinates>
		</Point>
	</Placemark>
	<Placemark>
		<name>Heidelberg</name>
		<LookAt>
			<longitude>8.661735139925661</longitude>
			<latitude>49.39928182993488</latitude>
			<altitude>0</altitude>
			<heading>-7.353154566043384</heading>
			<tilt>0</tilt>
			<range>8280.712524675695</range>
			<gx:altitudeMode>relativeToSeaFloor</gx:altitudeMode>
		</LookAt>
		<styleUrl>#m_ylw-pushpin</styleUrl>
		<Point>
			<gx:drawOrder>1</gx:drawOrder>
			<coordinates>8.683158596420245,49.40417623085852,0</coordinates>
		</Point>
	</Placemark>
	<Placemark>
		<name>Darmstadt</name>
		<LookAt>
			<longitude>8.652300101264105</longitude>
			<latitude>49.87151121756926</latitude>
			<altitude>0</altitude>
			<heading>-7.373874754707292</heading>
			<tilt>0</tilt>
			<range>11153.19087425869</range>
			<gx:altitudeMode>relativeToSeaFloor</gx:altitudeMode>
		</LookAt>
		<styleUrl>#m_ylw-pushpin</styleUrl>
		<Point>
			<gx:drawOrder>1</gx:drawOrder>
			<coordinates>8.650384783945279,49.87214610555634,0</coordinates>
		</Point>
	</Placemark>
	<Placemark>
		<name>Frankfurt</name>
		<LookAt>
			<longitude>8.750141907450859</longitude>
			<latitude>50.10755118690083</latitude>
			<altitude>0</altitude>
			<heading>-1.123992039498899</heading>
			<tilt>0</tilt>
			<range>19211.62879530209</range>
			<gx:altitudeMode>relativeToSeaFloor</gx:altitudeMode>
		</LookAt>
		<styleUrl>#m_ylw-pushpin1</styleUrl>
		<Point>
			<gx:drawOrder>1</gx:drawOrder>
			<coordinates>8.661733854020957,50.11754082560834,0</coordinates>
		</Point>
	</Placemark>
	<Placemark>
		<name>Offenbach</name>
		<LookAt>
			<longitude>8.750141907450859</longitude>
			<latitude>50.10755118690083</latitude>
			<altitude>0</altitude>
			<heading>-1.123992039498899</heading>
			<tilt>0</tilt>
			<range>19211.62879530209</range>
			<gx:altitudeMode>relativeToSeaFloor</gx:altitudeMode>
		</LookAt>
		<styleUrl>#m_ylw-pushpin1</styleUrl>
		<Point>
			<gx:drawOrder>1</gx:drawOrder>
			<coordinates>8.769139907257873,50.09536515283704,0</coordinates>
		</Point>
	</Placemark>
	<Placemark>
		<name>Hanau</name>
		<LookAt>
			<longitude>8.949002854859543</longitude>
			<latitude>50.13879501558007</latitude>
			<altitude>0</altitude>
			<heading>-7.146166381616661</heading>
			<tilt>0</tilt>
			<range>32589.8493219354</range>
			<gx:altitudeMode>relativeToSeaFloor</gx:altitudeMode>
		</LookAt>
		<styleUrl>#m_ylw-pushpin</styleUrl>
		<Point>
			<gx:drawOrder>1</gx:drawOrder>
			<coordinates>8.925887718413355,50.12556260962928,0</coordinates>
		</Point>
	</Placemark>
	<Placemark>
		<name>Trier</name>
		<LookAt>
			<longitude>6.736228381289864</longitude>
			<latitude>49.8041294521371</latitude>
			<altitude>0</altitude>
			<heading>-9.098832806336761</heading>
			<tilt>0</tilt>
			<range>31334.84915316807</range>
			<gx:altitudeMode>relativeToSeaFloor</gx:altitudeMode>
		</LookAt>
		<styleUrl>#m_ylw-pushpin</styleUrl>
		<Point>
			<gx:drawOrder>1</gx:drawOrder>
			<coordinates>6.638846923322934,49.7516232170267,0</coordinates>
		</Point>
	</Placemark>
	<Placemark>
		<name>Gießen</name>
		<LookAt>
			<longitude>8.68806815433148</longitude>
			<latitude>50.58319189067056</latitude>
			<altitude>0</altitude>
			<heading>-7.856349027855137</heading>
			<tilt>0</tilt>
			<range>6137.242804587398</range>
			<gx:altitudeMode>relativeToSeaFloor</gx:altitudeMode>
		</LookAt>
		<styleUrl>#m_ylw-pushpin</styleUrl>
		<Point>
			<gx:drawOrder>1</gx:drawOrder>
			<coordinates>8.673731568187273,50.58079664808985,0</coordinates>
		</Point>
	</Placemark>
	<Placemark>
		<name>Koblenz</name>
		<LookAt>
			<longitude>7.6462111465942</longitude>
			<latitude>50.38903769309755</latitude>
			<altitude>0</altitude>
			<heading>-2.08079952151741</heading>
			<tilt>0</tilt>
			<range>23450.52534083853</range>
			<gx:altitudeMode>relativeToSeaFloor</gx:altitudeMode>
		</LookAt>
		<styleUrl>#m_ylw-pushpin1</styleUrl>
		<Point>
			<gx:drawOrder>1</gx:drawOrder>
			<coordinates>7.577687529094614,50.35542370531008,0</coordinates>
		</Point>
	</Placemark>
	<Placemark>
		<name>Bonn</name>
		<LookAt>
			<longitude>7.147358613903233</longitude>
			<latitude>50.73430510489693</latitude>
			<altitude>0</altitude>
			<heading>-2.466085046822189</heading>
			<tilt>0</tilt>
			<range>22333.70540833996</range>
			<gx:altitudeMode>relativeToSeaFloor</gx:altitudeMode>
		</LookAt>
		<styleUrl>#m_ylw-pushpin1</styleUrl>
		<Point>
			<gx:drawOrder>1</gx:drawOrder>
			<coordinates>7.090645516574758,50.73693159060468,0</coordinates>
		</Point>
	</Placemark>
	<Placemark>
		<name>Siegen</name>
		<LookAt>
			<longitude>8.03078807368084</longitude>
			<latitude>50.88207213891419</latitude>
			<altitude>0</altitude>
			<heading>-8.446186129336665</heading>
			<tilt>0</tilt>
			<range>5855.394146999606</range>
			<gx:altitudeMode>relativeToSeaFloor</gx:altitudeMode>
		</LookAt>
		<styleUrl>#m_ylw-pushpin</styleUrl>
		<Point>
			<gx:drawOrder>1</gx:drawOrder>
			<coordinates>8.029997483837869,50.88233269148652,0</coordinates>
		</Point>
	</Placemark>
	<Placemark>
		<name>Aachen</name>
		<LookAt>
			<longitude>6.193978710745371</longitude>
			<latitude>50.80256583498119</latitude>
			<altitude>0</altitude>
			<heading>-10.32016027353455</heading>
			<tilt>0</tilt>
			<range>18153.88193442438</range>
			<gx:altitudeMode>relativeToSeaFloor</gx:altitudeMode>
		</LookAt>
		<styleUrl>#m_ylw-pushpin</styleUrl>
		<Point>
			<gx:drawOrder>1</gx:drawOrder>
			<coordinates>6.086953120462518,50.77382454099126,0</coordinates>
		</Point>
	</Placemark>
	<Placemark>
		<name>Köln</name>
		<LookAt>
			<longitude>7.020881214188785</longitude>
			<latitude>50.9557451240844</latitude>
			<altitude>0</altitude>
			<heading>-2.564088063129562</heading>
			<tilt>0</tilt>
			<range>17121.84292922012</range>
			<gx:altitudeMode>relativeToSeaFloor</gx:altitudeMode>
		</LookAt>
		<styleUrl>#m_ylw-pushpin1</styleUrl>
		<Point>
			<gx:drawOrder>1</gx:drawOrder>
			<coordinates>6.951852400461929,50.94118064374938,0</coordinates>
		</Point>
	</Placemark>
	<Placemark>
		<name>Bergisch Gladbach</name>
		<LookAt>
			<longitude>7.17393004331837</longitude>
			<latitude>51.00398785574257</latitude>
			<altitude>0</altitude>
			<heading>-9.559714768583024</heading>
			<tilt>0</tilt>
			<range>15424.49385665885</range>
			<gx:altitudeMode>relativeToSeaFloor</gx:altitudeMode>
		</LookAt>
		<styleUrl>#m_ylw-pushpin</styleUrl>
		<Point>
			<gx:drawOrder>1</gx:drawOrder>
			<coordinates>7.123059559757747,50.98835959123147,0</coordinates>
		</Point>
	</Placemark>
	<Placemark>
		<name>Neuss</name>
		<LookAt>
			<longitude>6.755623082138194</longitude>
			<latitude>51.2210890985204</latitude>
			<altitude>0</altitude>
			<heading>-9.833488216772141</heading>
			<tilt>0</tilt>
			<range>14188.17707160928</range>
			<gx:altitudeMode>relativeToSeaFloor</gx:altitudeMode>
		</LookAt>
		<styleUrl>#m_ylw-pushpin</styleUrl>
		<Point>
			<gx:drawOrder>1</gx:drawOrder>
			<coordinates>6.685852553944411,51.19970137825078,0</coordinates>
		</Point>
	</Placemark>
	<Placemark>
		<name>Duisburg</name>
		<LookAt>
			<longitude>6.763260128338151</longitude>
			<latitude>51.31929325020061</latitude>
			<altitude>0</altitude>
			<heading>-9.827459272939274</heading>
			<tilt>0</tilt>
			<range>45219.38196902927</range>
			<gx:altitudeMode>relativeToSeaFloor</gx:altitudeMode>
		</LookAt>
		<styleUrl>#m_ylw-pushpin</styleUrl>
		<Point>
			<gx:drawOrder>1</gx:drawOrder>
			<coordinates>6.763235090039537,51.42892466790229,0</coordinates>
		</Point>
	</Placemark>
	<Placemark>
		<name>Essen</name>
		<LookAt>
			<longitude>7.085684526754393</longitude>
			<latitude>51.45620317830803</latitude>
			<altitude>0</altitude>
			<heading>-9.575815344923402</heading>
			<tilt>0</tilt>
			<range>17965.15845091051</range>
			<gx:altitudeMode>relativeToSeaFloor</gx:altitudeMode>
		</LookAt>
		<styleUrl>#m_ylw-pushpin</styleUrl>
		<Point>
			<gx:drawOrder>1</gx:drawOrder>
			<coordinates>7.01722760087939,51.45832153299169,0</coordinates>
		</Point>
	</Placemark>
	<Placemark>
		<name>Dortmund</name>
		<LookAt>
			<longitude>7.467211314867082</longitude>
			<latitude>51.52006968129893</latitude>
			<altitude>0</altitude>
			<heading>-9.277188177471874</heading>
			<tilt>0</tilt>
			<range>8315.132630731592</range>
			<gx:altitudeMode>relativeToSeaFloor</gx:altitudeMode>
		</LookAt>
		<styleUrl>#m_ylw-pushpin</styleUrl>
		<Point>
			<gx:drawOrder>1</gx:drawOrder>
			<coordinates>7.464473060408263,51.51282585396332,0</coordinates>
		</Point>
	</Placemark>
	<Placemark>
		<name>Wuppertal</name>
		<LookAt>
			<longitude>7.111812566770393</longitude>
			<latitude>51.25114103768401</latitude>
			<altitude>0</altitude>
			<heading>-9.582065887189948</heading>
			<tilt>0</tilt>
			<range>20669.32929589467</range>
			<gx:altitudeMode>relativeToSeaFloor</gx:altitudeMode>
		</LookAt>
		<styleUrl>#m_ylw-pushpin</styleUrl>
		<Point>
			<gx:drawOrder>1</gx:drawOrder>
			<coordinates>7.145820472896909,51.25843188975303,0</coordinates>
		</Point>
	</Placemark>
	<Placemark>
		<name>Bochum</name>
		<LookAt>
			<longitude>7.240816272558995</longitude>
			<latitude>51.49682555444951</latitude>
			<altitude>0</altitude>
			<heading>-9.495915017346217</heading>
			<tilt>0</tilt>
			<range>28326.22483271423</range>
			<gx:altitudeMode>relativeToSeaFloor</gx:altitudeMode>
		</LookAt>
		<styleUrl>#m_ylw-pushpin</styleUrl>
		<Point>
			<gx:drawOrder>1</gx:drawOrder>
			<coordinates>7.214994327558529,51.48073898178486,0</coordinates>
		</Point>
	</Placemark>
	<Placemark>
		<name>Krefeld</name>
		<LookAt>
			<longitude>6.576753888705218</longitude>
			<latitude>51.33640398459194</latitude>
			<altitude>0</altitude>
			<heading>-10.02486088254305</heading>
			<tilt>0</tilt>
			<range>4907.174592281231</range>
			<gx:altitudeMode>relativeToSeaFloor</gx:altitudeMode>
		</LookAt>
		<styleUrl>#m_ylw-pushpin</styleUrl>
		<Point>
			<gx:drawOrder>1</gx:drawOrder>
			<coordinates>6.567363027353254,51.33334173755339,0</coordinates>
		</Point>
	</Placemark>
	<Placemark>
		<name>Gelsenkirchen</name>
		<LookAt>
			<longitude>7.080205265891924</longitude>
			<latitude>51.5176276533453</latitude>
			<altitude>0</altitude>
			<heading>-10.10550327655856</heading>
			<tilt>0</tilt>
			<range>8147.990389255453</range>
			<gx:altitudeMode>relativeToSeaFloor</gx:altitudeMode>
		</LookAt>
		<styleUrl>#m_ylw-pushpin</styleUrl>
		<Point>
			<gx:drawOrder>1</gx:drawOrder>
			<coordinates>7.092769152987519,51.51510222265403,0</coordinates>
		</Point>
	</Placemark>
	<Placemark>
		<name>Hagen</name>
		<LookAt>
			<longitude>7.471738644856202</longitude>
			<latitude>51.36382344176076</latitude>
			<altitude>0</altitude>
			<heading>-9.799633905357835</heading>
			<tilt>0</tilt>
			<range>16429.46364289591</range>
			<gx:altitudeMode>relativeToSeaFloor</gx:altitudeMode>
		</LookAt>
		<styleUrl>#m_ylw-pushpin</styleUrl>
		<Point>
			<gx:drawOrder>1</gx:drawOrder>
			<coordinates>7.466915435023875,51.36795670402652,0</coordinates>
		</Point>
	</Placemark>
	<Placemark>
		<name>Münster</name>
		<LookAt>
			<longitude>7.649792693845594</longitude>
			<latitude>51.98005167784753</latitude>
			<altitude>0</altitude>
			<heading>-9.671922130536881</heading>
			<tilt>0</tilt>
			<range>12860.8400795941</range>
			<gx:altitudeMode>relativeToSeaFloor</gx:altitudeMode>
		</LookAt>
		<styleUrl>#m_ylw-pushpin</styleUrl>
		<Point>
			<gx:drawOrder>1</gx:drawOrder>
			<coordinates>7.625716303338077,51.96161827396628,0</coordinates>
		</Point>
	</Placemark>
	<Placemark>
		<name>Paderborn</name>
		<LookAt>
			<longitude>8.672902476707023</longitude>
			<latitude>51.71979461040588</latitude>
			<altitude>0</altitude>
			<heading>-8.943445597597513</heading>
			<tilt>0</tilt>
			<range>29981.2777362416</range>
			<gx:altitudeMode>relativeToSeaFloor</gx:altitudeMode>
		</LookAt>
		<styleUrl>#m_ylw-pushpin</styleUrl>
		<Point>
			<gx:drawOrder>1</gx:drawOrder>
			<coordinates>8.759011898836583,51.71807830189969,0</coordinates>
		</Point>
	</Placemark>
	<Placemark>
		<name>Arnsberg</name>
		<LookAt>
			<longitude>8.040294305268629</longitude>
			<latitude>51.37909627281008</latitude>
			<altitude>0</altitude>
			<heading>-9.438886704396161</heading>
			<tilt>0</tilt>
			<range>27854.86070909075</range>
			<gx:altitudeMode>relativeToSeaFloor</gx:altitudeMode>
		</LookAt>
		<styleUrl>#m_ylw-pushpin</styleUrl>
		<Point>
			<gx:drawOrder>1</gx:drawOrder>
			<coordinates>8.073054957791769,51.39535945517414,0</coordinates>
		</Point>
	</Placemark>
	<Placemark>
		<name>Bielefeld</name>
		<LookAt>
			<longitude>8.532023261690552</longitude>
			<latitude>52.01573387794334</latitude>
			<altitude>0</altitude>
			<heading>-9.153059306071231</heading>
			<tilt>0</tilt>
			<range>11108.43402379222</range>
			<gx:altitudeMode>relativeToSeaFloor</gx:altitudeMode>
		</LookAt>
		<styleUrl>#m_ylw-pushpin</styleUrl>
		<Point>
			<gx:drawOrder>1</gx:drawOrder>
			<coordinates>8.531742270701317,52.02075454776518,0</coordinates>
		</Point>
	</Placemark>
	<Placemark>
		<name>Detmold</name>
		<LookAt>
			<longitude>8.864336343056284</longitude>
			<latitude>51.9735102911929</latitude>
			<altitude>0</altitude>
			<heading>-8.894321403401815</heading>
			<tilt>0</tilt>
			<range>14472.50314877807</range>
			<gx:altitudeMode>relativeToSeaFloor</gx:altitudeMode>
		</LookAt>
		<styleUrl>#m_ylw-pushpin</styleUrl>
		<Point>
			<gx:drawOrder>1</gx:drawOrder>
			<coordinates>8.869034119386445,51.93747402845283,0</coordinates>
		</Point>
	</Placemark>
	<Placemark>
		<name>Hamm</name>
		<LookAt>
			<longitude>7.868922706574653</longitude>
			<latitude>51.69672578326085</latitude>
			<altitude>0</altitude>
			<heading>-9.600333752959052</heading>
			<tilt>0</tilt>
			<range>25211.25657527973</range>
			<gx:altitudeMode>relativeToSeaFloor</gx:altitudeMode>
		</LookAt>
		<styleUrl>#m_ylw-pushpin</styleUrl>
		<Point>
			<gx:drawOrder>1</gx:drawOrder>
			<coordinates>7.818773417861353,51.67600677016223,0</coordinates>
		</Point>
	</Placemark>
	<Placemark>
		<name>Neubrandenburg</name>
		<LookAt>
			<longitude>13.30184619099576</longitude>
			<latitude>53.58371827719369</latitude>
			<altitude>0</altitude>
			<heading>-5.928447295517052</heading>
			<tilt>0</tilt>
			<range>12869.965278883</range>
			<gx:altitudeMode>relativeToSeaFloor</gx:altitudeMode>
		</LookAt>
		<styleUrl>#m_ylw-pushpin</styleUrl>
		<Point>
			<gx:drawOrder>1</gx:drawOrder>
			<coordinates>13.26045562922323,53.5572015329186,0</coordinates>
		</Point>
	</Placemark>
	<Placemark>
		<name>Wilhelmshaven</name>
		<LookAt>
			<longitude>8.304023408902342</longitude>
			<latitude>53.50263470998909</latitude>
			<altitude>0</altitude>
			<heading>-9.961160491374766</heading>
			<tilt>0</tilt>
			<range>44607.77201887449</range>
			<gx:altitudeMode>relativeToSeaFloor</gx:altitudeMode>
		</LookAt>
		<styleUrl>#m_ylw-pushpin</styleUrl>
		<Point>
			<gx:drawOrder>1</gx:drawOrder>
			<coordinates>8.108737528568536,53.5309080362303,0</coordinates>
		</Point>
	</Placemark>
	<Placemark>
		<name>Bremerhaven</name>
		<LookAt>
			<longitude>8.304023408902342</longitude>
			<latitude>53.50263470998909</latitude>
			<altitude>0</altitude>
			<heading>-9.961160491374766</heading>
			<tilt>0</tilt>
			<range>44607.77201887449</range>
			<gx:altitudeMode>relativeToSeaFloor</gx:altitudeMode>
		</LookAt>
		<styleUrl>#m_ylw-pushpin</styleUrl>
		<Point>
			<gx:drawOrder>1</gx:drawOrder>
			<coordinates>8.591306537482964,53.53851957927639,0</coordinates>
		</Point>
	</Placemark>
	<Placemark>
		<name>Kleve</name>
		<LookAt>
			<longitude>6.158339166769723</longitude>
			<latitude>51.78346256178148</latitude>
			<altitude>0</altitude>
			<heading>-11.64593457345431</heading>
			<tilt>0</tilt>
			<range>6253.918366557632</range>
			<gx:altitudeMode>relativeToSeaFloor</gx:altitudeMode>
		</LookAt>
		<styleUrl>#m_ylw-pushpin</styleUrl>
		<Point>
			<gx:drawOrder>1</gx:drawOrder>
			<coordinates>6.130999978438425,51.78615529500119,0</coordinates>
		</Point>
	</Placemark>
	<Placemark>
		<name>Passau</name>
		<LookAt>
			<longitude>13.42855071760202</longitude>
			<latitude>48.57663116126736</latitude>
			<altitude>0</altitude>
			<heading>-6.196642350606476</heading>
			<tilt>0</tilt>
			<range>15488.03158840385</range>
			<gx:altitudeMode>relativeToSeaFloor</gx:altitudeMode>
		</LookAt>
		<styleUrl>#m_ylw-pushpin</styleUrl>
		<Point>
			<gx:drawOrder>1</gx:drawOrder>
			<coordinates>13.43179634466249,48.56800272498303,0</coordinates>
		</Point>
	</Placemark>
	<Placemark>
		<name>Möchengladbach</name>
		<LookAt>
			<longitude>6.48787972787286</longitude>
			<latitude>51.21943496568123</latitude>
			<altitude>0</altitude>
			<heading>-3.069080415848592</heading>
			<tilt>0</tilt>
			<range>16846.6442402234</range>
			<gx:altitudeMode>relativeToSeaFloor</gx:altitudeMode>
		</LookAt>
		<styleUrl>#m_ylw-pushpin1</styleUrl>
		<Point>
			<gx:drawOrder>1</gx:drawOrder>
			<coordinates>6.429864213086185,51.18826094377462,0</coordinates>
		</Point>
	</Placemark>
	<Placemark>
		<name>Fulda</name>
		<LookAt>
			<longitude>9.765390247614707</longitude>
			<latitude>50.57264197564503</latitude>
			<altitude>0</altitude>
			<heading>-11.92947586676459</heading>
			<tilt>0</tilt>
			<range>23494.61352951103</range>
			<gx:altitudeMode>relativeToSeaFloor</gx:altitudeMode>
		</LookAt>
		<styleUrl>#m_ylw-pushpin1</styleUrl>
		<Point>
			<gx:drawOrder>1</gx:drawOrder>
			<coordinates>9.695273711628328,50.55056621591513,0</coordinates>
		</Point>
	</Placemark>
</Document>
</kml>
